"","country_region_code","country_region","sub_region_1","sub_region_2","metro_area","place_id","areaCode"
"1","GB","United Kingdom","","",NA,"ChIJqZHHQhE7WgIReiWIMkOg-MQ",NA
"322","GB","United Kingdom","Aberdeen City","",NA,"ChIJs6qVe2kRhEgRkLBCBhpoDAM","S12000033"
"643","GB","United Kingdom","Aberdeenshire","",NA,"ChIJ1deuZ9h_g0gRB-LNSfT9NVA","S12000034"
"964","GB","United Kingdom","Angus Council","",NA,"ChIJG0UKe3kqhEgRsxEd27rxlSg","S12000041"
"1279","GB","United Kingdom","Antrim and Newtownabbey","",NA,"ChIJ-QsErn2rYUgR-WEb8k5G8Bw",NA
"1597","GB","United Kingdom","Ards and North Down","",NA,"ChIJZUDzJ452YUgRrifX_btxxMY",NA
"1915","GB","United Kingdom","Argyll and Bute Council","",NA,"ChIJ_14lA-YtikgRsLBCBhpoDAM","S12000035"
"2230","GB","United Kingdom","Armagh City, Banbridge and Craigavon","",NA,"ChIJRW_g5EzvYEgR0_NWY2pfPB4",NA
"2551","GB","United Kingdom","Bath and North East Somerset","",NA,"ChIJNczQRnmIcUgREKCZ1COLDQM","E06000022"
"2869","GB","United Kingdom","Bedford","",NA,"ChIJpQ1uuWG3d0gREKjDu6gcDgM","E06000055"
"3190","GB","United Kingdom","Belfast","",NA,"ChIJfTP03VUIYUgRgBotirI_DwM",NA
"3511","GB","United Kingdom","Blackburn with Darwen","",NA,"ChIJrb426zyge0gRgKBv7Z75DAM","E06000008"
"3829","GB","United Kingdom","Blackpool","",NA,"ChIJcyRdsZxDe0gRcKBv7Z75DAM","E06000009"
"4150","GB","United Kingdom","Blaenau Gwent","",NA,"ChIJaas2DhEmbkgRIbLKMOJN2wQ","W06000019"
"4464","GB","United Kingdom","Borough of Halton","",NA,"ChIJ3wUNUpviekgRUKBv7Z75DAM","E06000006"
"4779","GB","United Kingdom","Bracknell Forest","",NA,"ChIJzX-3DTl-dkgRMEztoi2uDgQ","E06000036"
"5094","GB","United Kingdom","Bridgend County Borough","",NA,"ChIJucvfFVtpbkgRIKKZ1COLDQM","W06000013"
"5411","GB","United Kingdom","Brighton and Hove","",NA,"ChIJfRLCXYeFdUgRsJ7toi2uDgM","E06000043"
"5732","GB","United Kingdom","Bristol City","",NA,"ChIJXWE9EuyNcUgRYKOZ1COLDQQ","E06000023"
"6053","GB","United Kingdom","Buckinghamshire","",NA,"ChIJ19VEWZxCdkgRnWdk0LjhNAU","E06000060"
"6374","GB","United Kingdom","Buckinghamshire","Aylesbury Vale",NA,"ChIJ1eHzLg35dkgR4ObCu6gcDgQ",NA
"6695","GB","United Kingdom","Buckinghamshire","Chiltern District",NA,"ChIJs7sDtWNndkgRsGnsoi2uDgQ",NA
"7010","GB","United Kingdom","Buckinghamshire","South Bucks District",NA,"ChIJoynJR59ldkgRwGnsoi2uDgQ",NA
"7328","GB","United Kingdom","Buckinghamshire","Wycombe District",NA,"ChIJ-2lzwCCLdkgRIOfCu6gcDgQ",NA
"7649","GB","United Kingdom","Caerphilly County Borough","",NA,"ChIJK_pEmTsZbkgRkQUcE8Sl2sQ","W06000018"
"7970","GB","United Kingdom","Cambridgeshire","",NA,"ChIJofUImRD210cR-iJr8SWphk4",NA
"8291","GB","United Kingdom","Cambridgeshire","Cambridge",NA,"ChIJs4un4Ztw2EcRMOPBu6gcDgQ","E07000008"
"8612","GB","United Kingdom","Cambridgeshire","East Cambridgeshire District",NA,"ChIJR-OwyJZs2EcRQOPBu6gcDgQ","E07000009"
"8927","GB","United Kingdom","Cambridgeshire","Fenland District",NA,"ChIJ5diBRpcH2EcRUOPBu6gcDgQ","E07000010"
"9248","GB","United Kingdom","Cambridgeshire","Huntingdonshire District",NA,"ChIJRetcqCTod0gRYOPBu6gcDgQ","E07000011"
"9569","GB","United Kingdom","Cambridgeshire","South Cambridgeshire District",NA,"ChIJ3T9odvd52EcRgOPBu6gcDgQ","E07000012"
"9890","GB","United Kingdom","Cardiff","",NA,"ChIJIcabGbIEbkgRAKKZ1COLDQM","W06000015"
"10211","GB","United Kingdom","Carmarthenshire","",NA,"ChIJgzFDhgnVaEgRpXZPqENoWyQ","W06000010"
"10531","GB","United Kingdom","Causeway Coast and Glens","",NA,"ChIJry1VbDM6YEgRpC9fY13q-mI",NA
"10849","GB","United Kingdom","Central Bedfordshire","",NA,"ChIJtzQxDOdKdkgRMKjDu6gcDgM","E06000056"
"11170","GB","United Kingdom","Ceredigion","",NA,"ChIJcYOiuisEb0gR1zA-l2ZepU0","W06000008"
"11466","GB","United Kingdom","Cheshire East","",NA,"ChIJaxGOo5ZZekgR0KdrWLxiEAM","E06000049"
"11787","GB","United Kingdom","Cheshire West and Chester","",NA,"ChIJjZkTmD_vekgRsKdrWLxiEAM","E06000050"
"12108","GB","United Kingdom","Clackmannanshire","",NA,"ChIJCdhYbl4phkgRkMnSV9rb_1o","S12000005"
"12404","GB","United Kingdom","Conwy Principal Area","",NA,"ChIJVVNNSZIXZUgRcKGZ1COLDQM","W06000003"
"12719","GB","United Kingdom","Cornwall","",NA,"ChIJyQ4nv_C3akgRcUVL2YU8Qm4","E06000052"
"13040","GB","United Kingdom","Cornwall","Penryn",NA,"ChIJsywQHkYja0gR5MFanJ7_h5Y",NA
"13293","GB","United Kingdom","County Durham","",NA,"ChIJreC1xuErfEgRwLZs7Z75DAM","E06000047"
"13614","GB","United Kingdom","Cumbria","",NA,"ChIJxec9obAqY0gRmoFEBVuS4RY",NA
"13935","GB","United Kingdom","Cumbria","Allerdale District",NA,"ChIJ-WTtmJfXfEgR0LZs7Z75DAQ","E07000026"
"14256","GB","United Kingdom","Cumbria","Barrow-in-Furness District",NA,"ChIJ5aGbLDOvfEgR4LZs7Z75DAQ","E07000027"
"14575","GB","United Kingdom","Cumbria","City of Carlisle",NA,"ChIJa7-8TS8OfUgR8LY-cTfRDwQ","E07000028"
"14896","GB","United Kingdom","Cumbria","Copeland District",NA,"ChIJ-3-AUX_KfEgRALds7Z75DAQ","E07000029"
"15211","GB","United Kingdom","Cumbria","Eden District",NA,"ChIJ_eRbnkn4fEgRELds7Z75DAQ","E07000030"
"15526","GB","United Kingdom","Cumbria","South Lakeland District",NA,"ChIJk887wMqRfEgRILds7Z75DAQ","E07000031"
"15847","GB","United Kingdom","Darlington","",NA,"ChIJ52hV6ribfkgRkKBv7Z75DAM","E06000005"
"16162","GB","United Kingdom","Denbighshire","",NA,"ChIJlSIGxCgUZUgRMcwM21BVBIk","W06000004"
"16477","GB","United Kingdom","Derby","",NA,"ChIJQzd25xvxeUgR0J_Du6gcDgM","E06000015"
"16798","GB","United Kingdom","Derbyshire","",NA,"ChIJTRhgylBVd0gRYxzUrCNcT7w",NA
"17119","GB","United Kingdom","Derbyshire","Amber Valley",NA,"ChIJM06czCnzeUgREOXCu6gcDgQ","E07000032"
"17440","GB","United Kingdom","Derbyshire","Bolsover District",NA,"ChIJwUhNunGXeUgRIOXCu6gcDgQ","E07000033"
"17758","GB","United Kingdom","Derbyshire","Chesterfield District",NA,"ChIJMU4y1SGbeUgRMOXCu6gcDgQ","E07000034"
"18079","GB","United Kingdom","Derbyshire","Derbyshire Dales District",NA,"ChIJIbg1_q8mekgRQOXCu6gcDgQ","E07000035"
"18397","GB","United Kingdom","Derbyshire","Erewash District",NA,"ChIJe6yTQmTueUgRUOXCu6gcDgQ","E07000036"
"18718","GB","United Kingdom","Derbyshire","High Peak District",NA,"ChIJZcTVz6gyekgRYOXCu6gcDgQ","E07000037"
"19036","GB","United Kingdom","Derbyshire","North East Derbyshire District",NA,"ChIJp3fcikKFeUgRcOXCu6gcDgQ","E07000038"
"19354","GB","United Kingdom","Derbyshire","South Derbyshire District",NA,"ChIJRdNQ76f5eUgRgOXCu6gcDgQ","E07000039"
"19675","GB","United Kingdom","Derry and Strabane","",NA,"ChIJL4CPotneX0gRWjvhs1YZdDE",NA
"19993","GB","United Kingdom","Devon","",NA,"ChIJRwLA2qv4a0gR_Vicygy6xhI",NA
"20314","GB","United Kingdom","Devon","East Devon District",NA,"ChIJuYdJoB-bbUgRwHLsoi2uDgQ","E07000040"
"20635","GB","United Kingdom","Devon","Exeter",NA,"ChIJ_ehP1ASkbUgR0HLsoi2uDgQ","E07000041"
"20956","GB","United Kingdom","Devon","Mid Devon District",NA,"ChIJIRjQReS7bUgR4HLsoi2uDgQ","E07000042"
"21271","GB","United Kingdom","Devon","North Devon District",NA,"ChIJo5GV_oA7bEgR8HLsoi2uDgQ","E07000043"
"21590","GB","United Kingdom","Devon","South Hams District",NA,"ChIJZ_2DiwPkbEgREHPsoi2uDgQ","E07000044"
"21911","GB","United Kingdom","Devon","Teignbridge",NA,"ChIJt3oXMGYHbUgRIHPsoi2uDgQ","E07000045"
"22232","GB","United Kingdom","Devon","Torridge District",NA,"ChIJv5ZO5QVqbEgRQHPsoi2uDgQ","E07000046"
"22547","GB","United Kingdom","Devon","West Devon District",NA,"ChIJQ1UgMgBZbEgRUHPsoi2uDgQ","E07000047"
"22862","GB","United Kingdom","Dorset","",NA,"ChIJd_Gr7aqAbUgRX23auoH0oTM",NA
"23183","GB","United Kingdom","Dorset","Bournemouth, Christchurch and Poole",NA,"ChIJ9_FAV3-hc0gRC-v3ThgZk2Q","E06000058"
"23504","GB","United Kingdom","Dorset","Dorset",NA,"ChIJe8R6aQNTckgRl1hkmK2N-1g","E06000059"
"23825","GB","United Kingdom","Dumfries and Galloway","",NA,"ChIJNb41SxLKYkgRqoCDQGd-en0","S12000006"
"24143","GB","United Kingdom","Dundee City Council","",NA,"ChIJGczMc-pchkgRze8pUD174xw","S12000042"
"24462","GB","United Kingdom","East Ayrshire Council","",NA,"ChIJi4UFQGYoiEgRULNCBhpoDAM","S12000008"
"24777","GB","United Kingdom","East Dunbartonshire Council","",NA,"ChIJDczc769ciEgRYLNCBhpoDAM","S12000045"
"25092","GB","United Kingdom","East Lothian Council","",NA,"ChIJk1bJ2F0Fh0gRvKbv-SJd00o","S12000010"
"25407","GB","United Kingdom","East Renfrewshire Council","",NA,"ChIJN1Yy_zQ2iEgRMLNCBhpoDAM","S12000011"
"25722","GB","United Kingdom","East Riding of Yorkshire","",NA,"ChIJWTdj-_Qf1kcRnEEJetNXhnE","E06000011"
"26043","GB","United Kingdom","East Sussex","",NA,"ChIJuVE1OiXg3kcRcGvgEoRu2pQ",NA
"26364","GB","United Kingdom","East Sussex","Eastbourne",NA,"ChIJVwujCFhx30cR8Eztoi2uDgQ","E07000061"
"26685","GB","United Kingdom","East Sussex","Hastings District",NA,"ChIJA4Hsq-sa30cRAE3toi2uDgQ","E07000062"
"27006","GB","United Kingdom","East Sussex","Lewes District",NA,"ChIJc6rOIoVi30cRIE2_JsaFEQQ","E07000063"
"27324","GB","United Kingdom","East Sussex","Rother District",NA,"ChIJTeBJz6MZ30cRME3toi2uDgQ","E07000064"
"27642","GB","United Kingdom","East Sussex","Wealden District",NA,"ChIJKTW1hrho30cRQE3toi2uDgQ","E07000065"
"27963","GB","United Kingdom","Edinburgh","",NA,"ChIJUXnOUJTGh0gRwLNCBhpoDAM","S12000036"
"28284","GB","United Kingdom","Essex","",NA,"ChIJ0w2H_idW2EcReVDuRzjLV0I",NA
"28605","GB","United Kingdom","Essex","Basildon District",NA,"ChIJzcNwzKnG2EcR4Gjsoi2uDgQ","E07000066"
"28926","GB","United Kingdom","Essex","Borough of Colchester",NA,"ChIJYbOxH2AD2UcRAOLBu6gcDgQ","E07000071"
"29247","GB","United Kingdom","Essex","Braintree District",NA,"ChIJPzciCQz62EcRAOTBu6gcDgQ","E07000067"
"29568","GB","United Kingdom","Essex","Brentwood District",NA,"ChIJ1wJ0Z32-2EcR4OHroi2uDgQ","E07000068"
"29883","GB","United Kingdom","Essex","Castle Point District",NA,"ChIJye24RPfa2EcRoOHBu6gcDgQ","E07000069"
"30200","GB","United Kingdom","Essex","Chelmsford",NA,"ChIJ6UT-UW7p2EcR8OHBu6gcDgQ","E07000070"
"30521","GB","United Kingdom","Essex","Epping Forest District",NA,"ChIJ3VEoRkaY2EcREOK9JsaFEQQ","E07000072"
"30842","GB","United Kingdom","Essex","Harlow District",NA,"ChIJ86Wp6ViZ2EcRsOHBu6gcDgQ","E07000073"
"31163","GB","United Kingdom","Essex","Maldon District",NA,"ChIJGag32jQe2UcRIOLBu6gcDgQ","E07000074"
"31478","GB","United Kingdom","Essex","Rochford District",NA,"ChIJ5bJtoSYn2UcRMOLBu6gcDgQ","E07000075"
"31793","GB","United Kingdom","Essex","Tendring District",NA,"ChIJo37dzXMN2UcRQOLBu6gcDgQ","E07000076"
"32114","GB","United Kingdom","Essex","Uttlesford",NA,"ChIJH4NhEwSM2EcREOTBu6gcDgQ","E07000077"
"32435","GB","United Kingdom","Falkirk","",NA,"ChIJw-xIZyJ6iEgRM9AQrv2dHr0","S12000014"
"32753","GB","United Kingdom","Fermanagh and Omagh","",NA,"ChIJ2xfPteg1XkgRLw3XwmauMac",NA
"33068","GB","United Kingdom","Fife","",NA,"ChIJGfnLttUwhkgRPBsRigOAVnY","S12000047"
"33389","GB","United Kingdom","Flintshire","",NA,"ChIJa62Y31DVZEgRAGq22Ew29rU","W06000005"
"33707","GB","United Kingdom","Glasgow City","",NA,"ChIJ368eA69GiEgRELNCBhpoDAM","S12000049"
"34028","GB","United Kingdom","Gloucestershire","",NA,"ChIJvWBKlTVTcEgRYidBWWOI7Dc",NA
"34349","GB","United Kingdom","Gloucestershire","Cheltenham",NA,"ChIJgc80HpgbcUgRoImX1COLDQQ","E07000078"
"34670","GB","United Kingdom","Gloucestershire","Cotswold District",NA,"ChIJFx3_wSQYcUgRsImX1COLDQQ","E07000079"
"34985","GB","United Kingdom","Gloucestershire","Forest of Dean District",NA,"ChIJ2aI0QJ6lcUgRwIqX1COLDQQ","E07000080"
"35300","GB","United Kingdom","Gloucestershire","Gloucester District",NA,"ChIJPSDtUQkGcUgRwImX1COLDQQ","E07000081"
"35621","GB","United Kingdom","Gloucestershire","Stroud District",NA,"ChIJwZpCDWwKcUgR0ImX1COLDQQ","E07000082"
"35939","GB","United Kingdom","Gloucestershire","Tewkesbury Borough",NA,"ChIJ83tTzmgccUgR4ImX1COLDQQ","E07000083"
"36254","GB","United Kingdom","Greater London","",NA,"ChIJb-IaoQug2EcRi-m4hONz8S8",NA
"36575","GB","United Kingdom","Greater London","City of London",NA,"ChIJ4Y3fTlUDdkgR0Gbsoi2uDgQ",NA
"36896","GB","United Kingdom","Greater London","City of Westminster",NA,"ChIJxwN8mDUFdkgRoGfsoi2uDgQ","E09000033"
"37217","GB","United Kingdom","Greater London","London Borough of Barking and Dagenham",NA,"ChIJkcYYXrKl2EcR0Ge-JsaFEQQ","E09000002"
"37538","GB","United Kingdom","Greater London","London Borough of Barnet",NA,"ChIJT29HcDkXdkgR4Gfsoi2uDgQ","E09000003"
"37859","GB","United Kingdom","Greater London","London Borough of Bexley",NA,"ChIJIfhvfFqu2EcR8Ge-JsaFEQQ","E09000004"
"38180","GB","United Kingdom","Greater London","London Borough of Brent",NA,"ChIJq7AET3IRdkgRoH-R0ciFEQo","E09000005"
"38501","GB","United Kingdom","Greater London","London Borough of Bromley",NA,"ChIJUYUsD96q2EcRcGnsoi2uDgQ","E09000006"
"38822","GB","United Kingdom","Greater London","London Borough of Camden",NA,"ChIJPZprGOwadkgR4Ga-JsaFEQQ","E09000007"
"39143","GB","United Kingdom","Greater London","London Borough of Croydon",NA,"ChIJW_bCdKUAdkgREGjsoi2uDgQ","E09000008"
"39464","GB","United Kingdom","Greater London","London Borough of Ealing",NA,"ChIJD2fuc4gSdkgRIGjsoi2uDgQ","E09000009"
"39785","GB","United Kingdom","Greater London","London Borough of Enfield",NA,"ChIJ7Y9uo9MYdkgRgGnsoi2uDgQ","E09000010"
"40106","GB","United Kingdom","Greater London","London Borough of Hackney",NA,"ChIJBYyO7-8cdkgRLG8Z2Fn7scU","E09000012"
"40427","GB","United Kingdom","Greater London","London Borough of Hammersmith and Fulham",NA,"ChIJwzfTXMEPdkgRAGfsoi2uDgQ","E09000013"
"40748","GB","United Kingdom","Greater London","London Borough of Haringey",NA,"ChIJZ1JpkPAbdkgREGfsoi2uDgQ","E09000014"
"41069","GB","United Kingdom","Greater London","London Borough of Harrow",NA,"ChIJsdjk2n0TdkgRQGjsoi2uDgQ","E09000015"
"41390","GB","United Kingdom","Greater London","London Borough of Havering",NA,"ChIJ1bfreqq72EcRUGjsoi2uDgQ","E09000016"
"41711","GB","United Kingdom","Greater London","London Borough of Hillingdon",NA,"ChIJzWR_V5NtdkgRkf7edrEjoRI","E09000017"
"42032","GB","United Kingdom","Greater London","London Borough of Hounslow",NA,"ChIJNeMxAOgMdkgRWPTlACaTBHQ","E09000018"
"42353","GB","United Kingdom","Greater London","London Borough of Islington",NA,"ChIJ5Tvr7V0bdkgRyWXsGMuF8FQ","E09000019"
"42674","GB","United Kingdom","Greater London","London Borough of Lambeth",NA,"ChIJt1zJSGgEdkgRsEAeRjCuDgo","E09000022"
"42995","GB","United Kingdom","Greater London","London Borough of Lewisham",NA,"ChIJmT6ce2sCdkgR4EAeRjCuDgo","E09000023"
"43316","GB","United Kingdom","Greater London","London Borough of Merton",NA,"ChIJbRcY2h0GdkgRQonYqyp5Fx8","E09000024"
"43637","GB","United Kingdom","Greater London","London Borough of Newham",NA,"ChIJfRGCus6n2EcRYGfsoi2uDgQ","E09000025"
"43958","GB","United Kingdom","Greater London","London Borough of Redbridge",NA,"ChIJcWrvVrqm2EcRoGjsoi2uDgQ","E09000026"
"44279","GB","United Kingdom","Greater London","London Borough of Richmond upon Thames",NA,"ChIJlwfWmnIMdkgRrCdnqjiWZjo","E09000027"
"44600","GB","United Kingdom","Greater London","London Borough of Southwark",NA,"ChIJ3ydEeZgDdkgRcGe-JsaFEQQ","E09000028"
"44921","GB","United Kingdom","Greater London","London Borough of Sutton",NA,"ChIJEZ61rPwHdkgRwGjsoi2uDgQ","E09000029"
"45242","GB","United Kingdom","Greater London","London Borough of Tower Hamlets",NA,"ChIJqdKqVc0CdkgRgGe-JsaFEQQ","E09000030"
"45563","GB","United Kingdom","Greater London","London Borough of Waltham Forest",NA,"ChIJkRAw9uEddkgR0Gjsoi2uDgQ","E09000031"
"45884","GB","United Kingdom","Greater London","London Borough of Wandsworth",NA,"ChIJg-qP_4kFdkgR0mhvpZwsJTc","E09000032"
"46205","GB","United Kingdom","Greater London","Royal Borough of Greenwich",NA,"ChIJJc-4yymo2EcRwqZo5HwjGEk","E09000011"
"46526","GB","United Kingdom","Greater London","Royal Borough of Kensington and Chelsea",NA,"ChIJQzlq8vcPdkgRMGfsoi2uDgQ","E09000020"
"46847","GB","United Kingdom","Greater London","Royal Borough of Kingston upon Thames",NA,"ChIJ0ycUEikKdkgR6r_eW1XvlAQ","E09000021"
"47168","GB","United Kingdom","Greater Manchester","",NA,"ChIJsS6I01Sme0gRgYDGISLYxyw",NA
"47489","GB","United Kingdom","Greater Manchester","Bolton District",NA,"ChIJZdGoSH6ne0gRADRt7Z75DAQ","E08000001"
"47810","GB","United Kingdom","Greater Manchester","Borough of Tameside",NA,"ChIJv6P8Nhi2e0gR0DNt7Z75DAQ","E08000008"
"48131","GB","United Kingdom","Greater Manchester","Bury District",NA,"ChIJuZg1jOOke0gRkDNt7Z75DAQ","E08000002"
"48452","GB","United Kingdom","Greater Manchester","Manchester",NA,"ChIJoceAoT2ye0gREDRt7Z75DAQ","E08000003"
"48773","GB","United Kingdom","Greater Manchester","Metropolitan Borough of Stockport",NA,"ChIJ27zTK8K0e0gRwDNt7Z75DAQ","E08000007"
"49094","GB","United Kingdom","Greater Manchester","Metropolitan Borough of Wigan",NA,"ChIJ5yOKLQUGe0gRQDRt7Z75DAQ","E08000010"
"49415","GB","United Kingdom","Greater Manchester","Oldham District",NA,"ChIJFXrfHPDHe0gRIDRpWLxiEAQ","E08000004"
"49736","GB","United Kingdom","Greater Manchester","Rochdale District",NA,"ChIJIwIpQmi5e0gRoDNt7Z75DAQ","E08000005"
"50057","GB","United Kingdom","Greater Manchester","Salford District",NA,"ChIJP5NeEsuue0gRsDNpWLxiEAQ","E08000006"
"50378","GB","United Kingdom","Greater Manchester","Trafford",NA,"ChIJKwmZm4ere0gRMDRt7Z75DAQ","E08000009"
"50699","GB","United Kingdom","Gwynedd","",NA,"ChIJ7Q8cbLY0ZEgR_OasFAMbzuw","W06000002"
"51014","GB","United Kingdom","Hampshire","",NA,"ChIJCY_IX6x4c0gRjTozj4I7b1E",NA
"51335","GB","United Kingdom","Hampshire","Basingstoke and Deane District",NA,"ChIJkRVzkKwedEgRwEvtoi2uDgQ","E07000084"
"51656","GB","United Kingdom","Hampshire","City of Winchester",NA,"ChIJWSAjjT0TdEgRcE7toi2uDgQ","E07000094"
"51977","GB","United Kingdom","Hampshire","East Hampshire",NA,"ChIJ0fKHVy84dEgRME7toi2uDgQ","E07000085"
"52295","GB","United Kingdom","Hampshire","Eastleigh District",NA,"ChIJWcDYPyBydEgRQE7toi2uDgQ","E07000086"
"52616","GB","United Kingdom","Hampshire","Fareham District",NA,"ChIJtXl8HExvdEgR4E3toi2uDgQ","E07000087"
"52934","GB","United Kingdom","Hampshire","Gosport",NA,"ChIJ5W3J-1JmdEgR8E3toi2uDgQ","E07000088"
"53252","GB","United Kingdom","Hampshire","Hart District",NA,"ChIJrSRrcCMpdEgR0Evtoi2uDgQ","E07000089"
"53567","GB","United Kingdom","Hampshire","Havant",NA,"ChIJly3pvzRbdEgRAE7toi2uDgQ","E07000090"
"53888","GB","United Kingdom","Hampshire","New Forest District",NA,"ChIJ0a0L-QqPc0gRUE7toi2uDgQ","E07000091"
"54209","GB","United Kingdom","Hampshire","Rushmoor District",NA,"ChIJWemt80MrdEgRgEvtoi2uDgQ","E07000092"
"54530","GB","United Kingdom","Hampshire","Test Valley District",NA,"ChIJTciGD9b3c0gRYE7toi2uDgQ","E07000093"
"54851","GB","United Kingdom","Hartlepool","",NA,"ChIJD8OlTU_zfkgRoKBv7Z75DAM","E06000001"
"55166","GB","United Kingdom","Herefordshire","",NA,"ChIJp-c_qiXUb0gRFpdyo5QQfHY","E06000019"
"55484","GB","United Kingdom","Hertfordshire","",NA,"ChIJ2QVt7Kd42EcR7vE0JPBfxEM",NA
"55805","GB","United Kingdom","Hertfordshire","Broxbourne District",NA,"ChIJNyc8hwEhdkgRAGnsoi2uDgQ","E07000095"
"56123","GB","United Kingdom","Hertfordshire","Dacorum District",NA,"ChIJx4Xsl1VbdkgRAGrsoi2uDgQ","E07000096"
"56444","GB","United Kingdom","Hertfordshire","East Hertfordshire District",NA,"ChIJXyBuKqSC2EcRcObCu6gcDgQ","E07000242"
"56765","GB","United Kingdom","Hertfordshire","Hertsmere District",NA,"ChIJKxLc-AIWdkgREGrsoi2uDgQ","E07000098"
"57083","GB","United Kingdom","Hertfordshire","North Hertfordshire District",NA,"ChIJW4KqFsAtdkgRkObCu6gcDgQ","E07000099"
"57404","GB","United Kingdom","Hertfordshire","Saint Albans District",NA,"ChIJH0mmGNM4dkgRIGq-JsaFEQQ","E07000240"
"57725","GB","United Kingdom","Hertfordshire","Stevenage District",NA,"ChIJC6uT4ikudkgRUObCu6gcDgQ","E07000243"
"58046","GB","United Kingdom","Hertfordshire","Three Rivers District",NA,"ChIJV0CmzxJqdkgRMGrsoi2uDgQ","E07000102"
"58361","GB","United Kingdom","Hertfordshire","Watford District",NA,"ChIJo4O2SpZqdkgREGnsoi2uDgQ","E07000103"
"58682","GB","United Kingdom","Hertfordshire","Welwyn Hatfield",NA,"ChIJj0gY9qskdkgRQGrsoi2uDgQ","E07000241"
"59003","GB","United Kingdom","Highland Council","",NA,"ChIJpQfhl1Nxj0gRON4nZCLq93M","S12000017"
"59324","GB","United Kingdom","Inverclyde","",NA,"ChIJH9joE7CxiUgRcLNCBhpoDAM","S12000018"
"59638","GB","United Kingdom","Isle of Anglesey","",NA,"ChIJ7Q8cbLY0ZEgRW9OLuxStLpA",NA
"59934","GB","United Kingdom","Isle of Wight","",NA,"ChIJCY_IX6x4c0gRMh_bnC8V9F4",NA
"60252","GB","United Kingdom","Kent","",NA,"ChIJl4Kx4hWo2EcRWRUgdmTnUZI",NA
"60573","GB","United Kingdom","Kent","Ashford District",NA,"ChIJRYbtSwnZ3kcRcEztoi2uDgQ","E07000105"
"60894","GB","United Kingdom","Kent","Borough of Swale",NA,"ChIJg0cns9HU3kcRsEztoi2uDgQ","E07000113"
"61215","GB","United Kingdom","Kent","City of Canterbury",NA,"ChIJuWrfDkjK3kcRgEztoi2uDgQ","E07000106"
"61536","GB","United Kingdom","Kent","Dartford District",NA,"ChIJu76lN2Ox2EcRUGrsoi2uDgQ","E07000107"
"61857","GB","United Kingdom","Kent","Dover District",NA,"ChIJMbMKSaux3kcRkEztoi2uDgQ","E07000108"
"62178","GB","United Kingdom","Kent","Folkestone & Hythe District",NA,"ChIJT9MTHbfD3kcRoEztoi2uDgQ","E07000112"
"62499","GB","United Kingdom","Kent","Gravesham District",NA,"ChIJ3TNIF13K2EcREE_toi2uDgQ","E07000109"
"62820","GB","United Kingdom","Kent","Maidstone District",NA,"ChIJz2gKJ0Eu30cRIE_toi2uDgQ","E07000110"
"63141","GB","United Kingdom","Kent","Sevenoaks District",NA,"ChIJDxDJofdN30cRYGrsoi2uDgQ","E07000111"
"63459","GB","United Kingdom","Kent","Thanet District",NA,"ChIJh9GgOaRS2UcRwEztoi2uDgQ","E07000114"
"63780","GB","United Kingdom","Kent","Tonbridge and Malling District",NA,"ChIJYS6pFgVK30cRUE_toi2uDgQ","E07000115"
"64098","GB","United Kingdom","Kent","Tunbridge Wells District",NA,"ChIJR6wYG8k430cR0Eztoi2uDgQ","E07000116"
"64416","GB","United Kingdom","Kingston upon Hull","",NA,"ChIJR48330G-eEgR8KBv7Z75DAM","E06000010"
"64737","GB","United Kingdom","Lancashire","",NA,"ChIJ2_UmUkxNekgRZRtGDNF9SbU",NA
"65058","GB","United Kingdom","Lancashire","Borough of Burnley",NA,"ChIJv1qBROSWe0gRAOJs7Z75DAQ","E07000117"
"65379","GB","United Kingdom","Lancashire","Borough of Fylde",NA,"ChIJZ87bof5pe0gR4DRt7Z75DAQ","E07000119"
"65697","GB","United Kingdom","Lancashire","Chorley District",NA,"ChIJB1ZNog8Ne0gR0DRpWLxiEAQ","E07000118"
"66018","GB","United Kingdom","Lancashire","City of Preston",NA,"ChIJE27fCdtxe0gREDVt7Z75DAQ","E07000123"
"66339","GB","United Kingdom","Lancashire","Hyndburn",NA,"ChIJGW_7lSuZe0gR8DRt7Z75DAQ","E07000120"
"66657","GB","United Kingdom","Lancashire","Lancaster District",NA,"ChIJ02uPtcGCfEgRADVpWLxiEAQ","E07000121"
"66978","GB","United Kingdom","Lancashire","Pendle District",NA,"ChIJH5d2OR2Se0gRwOJs7Z75DAQ","E07000122"
"67296","GB","United Kingdom","Lancashire","Ribble Valley District",NA,"ChIJwXBRfVuDe0gR0OJs7Z75DAQ","E07000124"
"67611","GB","United Kingdom","Lancashire","Rossendale",NA,"ChIJ_yvcWTK9e0gREOJs7Z75DAQ","E07000125"
"67926","GB","United Kingdom","Lancashire","South Ribble District",NA,"ChIJeQ5UMqBye0gRMDVt7Z75DAQ","E07000126"
"68247","GB","United Kingdom","Lancashire","West Lancashire District",NA,"ChIJhRumTgsWe0gRQDVt7Z75DAQ","E07000127"
"68568","GB","United Kingdom","Lancashire","Wyre District",NA,"ChIJF2Sj6HJme0gRUDVt7Z75DAQ","E07000128"
"68889","GB","United Kingdom","Leicester","",NA,"ChIJoezi2B5hd0gRsJ_Du6gcDgM","E06000016"
"69210","GB","United Kingdom","Leicestershire","",NA,"ChIJs3uVVC1Ad0gRK6-E8nGBOYQ",NA
"69531","GB","United Kingdom","Leicestershire","Blaby District",NA,"ChIJIQI7h5pdd0gRQOTCu6gcDgQ","E07000129"
"69852","GB","United Kingdom","Leicestershire","Charnwood",NA,"ChIJK3eqparfeUgRUOTCu6gcDgQ","E07000130"
"70173","GB","United Kingdom","Leicestershire","Harborough District",NA,"ChIJ7VRfc2hld0gRYOTCu6gcDgQ","E07000131"
"70488","GB","United Kingdom","Leicestershire","Hinckley and Bosworth District",NA,"ChIJWSYpoapQd0gRcOTCu6gcDgQ","E07000132"
"70809","GB","United Kingdom","Leicestershire","Melton District",NA,"ChIJ-SOYrLzTeUgRMOfCu6gcDgQ","E07000133"
"71124","GB","United Kingdom","Leicestershire","North West Leicestershire District",NA,"ChIJ3S_nyZn8eUgRgOTCu6gcDgQ","E07000134"
"71442","GB","United Kingdom","Leicestershire","Oadby and Wigston District",NA,"ChIJg5NsEplmd0gRIOTCu6gcDgQ","E07000135"
"71757","GB","United Kingdom","Lincolnshire","",NA,"ChIJJ70edCUo1kcRADi1k4LEkXs",NA
"72078","GB","United Kingdom","Lincolnshire","Boston District",NA,"ChIJCZ3cZAkKeEgRYOLBu6gcDgQ","E07000136"
"72399","GB","United Kingdom","Lincolnshire","East Lindsey District",NA,"ChIJ75VA3TbW10cRcOLBu6gcDgQ","E07000137"
"72720","GB","United Kingdom","Lincolnshire","Lincoln District",NA,"ChIJnwmVidNaeEgRUOLBu6gcDgQ","E07000138"
"73041","GB","United Kingdom","Lincolnshire","North Kesteven District",NA,"ChIJk15rzcNAeEgRgOLBu6gcDgQ","E07000139"
"73362","GB","United Kingdom","Lincolnshire","South Holland District",NA,"ChIJt8tHvWkHeEgRkOLBu6gcDgQ","E07000140"
"73683","GB","United Kingdom","Lincolnshire","South Kesteven District",NA,"ChIJb91hlJckeEgRoOLBu6gcDgQ","E07000141"
"74004","GB","United Kingdom","Lincolnshire","West Lindsey District",NA,"ChIJSdjX_4z1eEgRsOLBu6gcDgQ","E07000142"
"74322","GB","United Kingdom","Lisburn and Castlereagh","",NA,"ChIJQZTUJSwFYUgRv_t7DVlGEwc",NA
"74639","GB","United Kingdom","Luton","",NA,"ChIJK97LqVVIdkgRAJ_Du6gcDgM","E06000032"
"74960","GB","United Kingdom","Medway","",NA,"ChIJU_bgGgnS2EcRQJ_toi2uDgM","E06000035"
"75281","GB","United Kingdom","Merseyside","",NA,"ChIJc2fVfoPXekgRApLOHfrVYYY",NA
"75602","GB","United Kingdom","Merseyside","Liverpool",NA,"ChIJrQ6lI0oge0gR4DNt7Z75DAQ","E08000012"
"75923","GB","United Kingdom","Merseyside","Metropolitan Borough of Knowsley",NA,"ChIJlfP9L9wee0gRUDRt7Z75DAQ","E08000011"
"76244","GB","United Kingdom","Merseyside","Metropolitan Borough of Sefton",NA,"ChIJZ-cIQIA7e0gRcDRt7Z75DAQ","E08000014"
"76565","GB","United Kingdom","Merseyside","Metropolitan Borough of St Helens",NA,"ChIJmZ_1I0Ube0gRYDRpWLxiEAQ","E08000013"
"76886","GB","United Kingdom","Merseyside","Wirral",NA,"ChIJxT7h0-4ne0gR8DNt7Z75DAQ","E08000015"
"77207","GB","United Kingdom","Merthyr Tydfil County Borough","",NA,"ChIJy3jMkAc7bkgRZwxpOYVo_M0","W06000024"
"77503","GB","United Kingdom","Mid and East Antrim","",NA,"ChIJrXNHHSKzYUgR1MZ2Fi03uzo",NA
"77821","GB","United Kingdom","Mid Ulster","",NA,"ChIJoaVNT6lhYEgRhD4lwDmJNtw",NA
"78136","GB","United Kingdom","Middlesbrough","",NA,"ChIJ7WjKLlrsfkgRwKBv7Z75DAM","E06000002"
"78454","GB","United Kingdom","Midlothian","",NA,"ChIJZ7buTdWUh0gRMR4ePyT9MbY","S12000019"
"78769","GB","United Kingdom","Milton Keynes","",NA,"ChIJPbtYnTiqd0gRgJ_Du6gcDgM","E06000042"
"79090","GB","United Kingdom","Monmouthshire","",NA,"ChIJlUugHBMebkgROLnkYuEj4DI","W06000021"
"79405","GB","United Kingdom","Moray","",NA,"ChIJYchqHiUMhUgRiqJTVJBl-eU","S12000020"
"79720","GB","United Kingdom","Na h-Eileanan an Iar","",NA,"ChIJZWkCw-twjUgRWd7FND7XoSI",NA
"79953","GB","United Kingdom","Neath Port Talbot Principle Area","",NA,"ChIJM5XY-eBcbkgRMKKZ1COLDQM","W06000012"
"80271","GB","United Kingdom","Newport","",NA,"ChIJ5YhihIXmcUgRwKGZ1COLDQM","W06000022"
"80592","GB","United Kingdom","Newry, Mourne and Down","",NA,"ChIJz4eCb5YmYUgRHl-FT4Lt9kA",NA
"80910","GB","United Kingdom","Norfolk","",NA,"ChIJ39UebIqp0EcRHxKMavHIeTU",NA
"81231","GB","United Kingdom","Norfolk","Breckland District",NA,"ChIJBdY1pxPT2UcR0OLBu6gcDgQ","E07000143"
"81552","GB","United Kingdom","Norfolk","Broadland District",NA,"ChIJp-3VIH_i2UcR4OLBu6gcDgQ","E07000144"
"81873","GB","United Kingdom","Norfolk","Great Yarmouth District",NA,"ChIJhXCJzA4B2kcR8OLBu6gcDgQ","E07000145"
"82194","GB","United Kingdom","Norfolk","King's Lynn and West Norfolk District",NA,"ChIJM29quByK10cRAOPBu6gcDgQ","E07000146"
"82515","GB","United Kingdom","Norfolk","North Norfolk District",NA,"ChIJIdKngYhn10cREOPBu6gcDgQ","E07000147"
"82833","GB","United Kingdom","Norfolk","Norwich",NA,"ChIJ_dJhnG_h2UcRwOLBu6gcDgQ","E07000148"
"83154","GB","United Kingdom","Norfolk","South Norfolk District",NA,"ChIJASqpVmTv2UcRIOPBu6gcDgQ","E07000149"
"83475","GB","United Kingdom","North Ayrshire Council","",NA,"ChIJp_JHoX3BiUgRgLNCBhpoDAM","S12000021"
"83792","GB","United Kingdom","North East Lincolnshire","",NA,"ChIJJ28lguuEeEgR4KBv7Z75DAM","E06000012"
"84113","GB","United Kingdom","North Lanarkshire","",NA,"ChIJXYIxhgFsiEgRU5MEdnHLRng","S12000050"
"84434","GB","United Kingdom","North Lincolnshire","",NA,"ChIJIUNmHbvveEgRgKJv7Z75DAM","E06000013"
"84752","GB","United Kingdom","North Somerset","",NA,"ChIJddC0Ns3wcUgR4J-Z1COLDQM","E06000024"
"85073","GB","United Kingdom","North Yorkshire","",NA,"ChIJ8WWY4UDDeEgRt5-VyBki4MM",NA
"85394","GB","United Kingdom","North Yorkshire","Borough of Harrogate",NA,"ChIJDXSBD0urfkgRAONs7Z75DAQ","E07000165"
"85715","GB","United Kingdom","North Yorkshire","Craven District",NA,"ChIJQ5VMGRCKe0gR4OJs7Z75DAQ","E07000163"
"86030","GB","United Kingdom","North Yorkshire","Hambleton District",NA,"ChIJWZU53V-3fkgRfH779stbRnY","E07000164"
"86346","GB","United Kingdom","North Yorkshire","Richmondshire District",NA,"ChIJXRouQGYXfEgREONs7Z75DAQ","E07000166"
"86661","GB","United Kingdom","North Yorkshire","Ryedale District",NA,"ChIJeQmbNyTWfkgRIONs7Z75DAQ","E07000167"
"86976","GB","United Kingdom","North Yorkshire","Scarborough District",NA,"ChIJSdScrlcjf0gRMONs7Z75DAQ","E07000168"
"87297","GB","United Kingdom","North Yorkshire","Selby",NA,"ChIJRzjbpCs8eUgRQONs7Z75DAQ","E07000169"
"87615","GB","United Kingdom","Northamptonshire","",NA,"ChIJBUaqzH0H2EcR9rx5rVrxKP4",NA
"87936","GB","United Kingdom","Northamptonshire","Borough of Kettering",NA,"ChIJ0WE1jAyed0gRsOXCu6gcDgQ","E06000061"
"88257","GB","United Kingdom","Northamptonshire","Borough of Wellingborough",NA,"ChIJ84zARzKhd0gR4OXCu6gcDgQ","E06000061"
"88578","GB","United Kingdom","Northamptonshire","Corby District",NA,"ChIJL2biQpacd0gRkOXCu6gcDgQ","E06000061"
"88899","GB","United Kingdom","Northamptonshire","Daventry District",NA,"ChIJEeZnlagTd0gRoOXCu6gcDgQ","E06000062"
"89215","GB","United Kingdom","Northamptonshire","East Northamptonshire",NA,"ChIJJcl6pUuRd0gRUOfCu6gcDgQ","E06000061"
"89533","GB","United Kingdom","Northamptonshire","Northampton District",NA,"ChIJbwMro9YOd0gRwOXCu6gcDgQ","E06000062"
"89854","GB","United Kingdom","Northamptonshire","South Northamptonshire District",NA,"ChIJpa0eDZ4bd0gR0OXCu6gcDgQ","E06000062"
"90169","GB","United Kingdom","Northumberland","",NA,"ChIJzWRvDH6FfUgRmcRi5Pzuur8","E06000057"
"90490","GB","United Kingdom","Nottingham","",NA,"ChIJ2d-4ZifCeUgRwJ_Du6gcDgM","E06000018"
"90811","GB","United Kingdom","Nottinghamshire","",NA,"ChIJzXkHOdIyeEgREinv5XDJr1Q",NA
"91132","GB","United Kingdom","Nottinghamshire","Ashfield District",NA,"ChIJP_vJ-qyVeUgRsOTCu6gcDgQ","E07000170"
"91453","GB","United Kingdom","Nottinghamshire","Bassetlaw District",NA,"ChIJa29y-luoeUgRYOfCu6gcDgQ","E07000171"
"91774","GB","United Kingdom","Nottinghamshire","Broxtowe District",NA,"ChIJLy42lcnreUgRwOTCu6gcDgQ","E07000172"
"92095","GB","United Kingdom","Nottinghamshire","Gedling District",NA,"ChIJJzAwvrvAeUgRmgMbLTIYG7g","E07000173"
"92416","GB","United Kingdom","Nottinghamshire","Mansfield District",NA,"ChIJfQb4pQ69eUgR4OTCu6gcDgQ","E07000174"
"92737","GB","United Kingdom","Nottinghamshire","Newark and Sherwood District",NA,"ChIJ9RuEer62eUgRcOfCu6gcDgQ","E07000175"
"93058","GB","United Kingdom","Nottinghamshire","Rushcliffe District",NA,"ChIJ68w-n6rFeUgR8OTCu6gcDgQ","E07000176"
"93376","GB","United Kingdom","Orkney","",NA,"ChIJHxJB75Ofm0gRULBCBhpoDAM",NA
"93596","GB","United Kingdom","Oxfordshire","",NA,"ChIJ5xOOaNPUcEgRUY89nbaaqW8",NA
"93917","GB","United Kingdom","Oxfordshire","Cherwell District",NA,"ChIJq11ooOHYdkgREIqX1COLDQQ","E07000177"
"94238","GB","United Kingdom","Oxfordshire","Oxford",NA,"ChIJqQsoql3BdkgRIIqX1COLDQQ","E07000178"
"94559","GB","United Kingdom","Oxfordshire","South Oxfordshire District",NA,"ChIJPX9mJvaUdkgRMIqX1COLDQQ","E07000179"
"94880","GB","United Kingdom","Oxfordshire","Vale of White Horse District",NA,"ChIJTd6bz-m1dkgRQIqX1COLDQQ","E07000180"
"95201","GB","United Kingdom","Oxfordshire","West Oxfordshire District",NA,"ChIJDaEJrH3NdkgRUIqX1COLDQQ","E07000181"
"95519","GB","United Kingdom","Pembrokeshire","",NA,"ChIJ58ydyqDQaEgRROFYyT8xOlk","W06000009"
"95834","GB","United Kingdom","Perth and Kinross","",NA,"ChIJFysl40uiiEgRwLBCBhpoDAM","S12000048"
"96152","GB","United Kingdom","Peterborough","",NA,"ChIJL2LxlyTxd0gRcJ_Du6gcDgM","E06000031"
"96473","GB","United Kingdom","Plymouth","",NA,"ChIJ0bg6FOjsbEgRcJ6VP0H0EAM","E06000026"
"96794","GB","United Kingdom","Portsmouth","",NA,"ChIJ5yrWSmhddEgRwJ7toi2uDgM","E06000044"
"97115","GB","United Kingdom","Powys","",NA,"ChIJQ0SL-jBRZUgR1eL1ZLry8Vg","W06000023"
"97430","GB","United Kingdom","Reading","",NA,"ChIJAWJESQqbdkgR8J7toi2uDgM","E06000038"
"97751","GB","United Kingdom","Redcar and Cleveland","",NA,"ChIJPWx3MfrkfkgR0KBv7Z75DAM","E06000003"
"98069","GB","United Kingdom","Renfrewshire","",NA,"ChIJMWXTLcFIiEgRgcDTu3b7jX0","S12000038"
"98390","GB","United Kingdom","Rhondda Cynon Taff","",NA,"ChIJ30vwO9g9bkgR8KGZ1COLDQM","W06000016"
"98711","GB","United Kingdom","Rutland","",NA,"ChIJl4pDuIB4d0gRy_G7Ifl8M_0","E06000017"
"98982","GB","United Kingdom","Scottish Borders","",NA,"ChIJ-WTiG7WGh0gR8LJCBhpoDAM","S12000026"
"99297","GB","United Kingdom","Shetland Islands","",NA,"ChIJz8MDaGgUnEgRf1XLFSWaY9M",NA
"99518","GB","United Kingdom","Shropshire","",NA,"ChIJLx3o1zdNZUgRIvHNaPOeniE","E06000051"
"99839","GB","United Kingdom","Shropshire","Telford and Wrekin",NA,"ChIJoXQ7uHWBekgRQKBv7Z75DAM","E06000020"
"100160","GB","United Kingdom","Slough","",NA,"ChIJ35sYgq96dkgRkJ_toi2uDgM","E06000039"
"100478","GB","United Kingdom","Somerset","",NA,"ChIJv5RA1diJbUgRmRrjBMtJxLg",NA
"100799","GB","United Kingdom","Somerset","Mendip District",NA,"ChIJ_bsxcF8kckgRYHPsoi2uDgQ","E07000187"
"101120","GB","United Kingdom","Somerset","Sedgemoor",NA,"ChIJsyBneSoEckgRcHPsoi2uDgQ","E07000188"
"101441","GB","United Kingdom","Somerset","South Somerset District",NA,"ChIJJ7HJZ9IUckgRgHPsoi2uDgQ","E07000189"
"101762","GB","United Kingdom","Somerset","Taunton Deane",NA,"ChIJD9MwTHrzbUgRkHPsoi2uDgQ","E07000246"
"102083","GB","United Kingdom","Somerset","West Somerset District",NA,"ChIJnb3eJQPobUgRoHPsoi2uDgQ","E07000246"
"102379","GB","United Kingdom","South Ayrshire Council","",NA,"ChIJhV6xcNBwYkgRoLNCBhpoDAM","S12000028"
"102694","GB","United Kingdom","South Gloucestershire","",NA,"ChIJ1cbMfWqacUgRAKCZ1COLDQM","E06000025"
"103015","GB","United Kingdom","South Lanarkshire","",NA,"ChIJfUCdedcaiEgRsLNCBhpoDAM","S12000029"
"103336","GB","United Kingdom","South Yorkshire","",NA,"ChIJL-13sqjieEgRmY8MZJxnEDo",NA
"103657","GB","United Kingdom","South Yorkshire","Borough of Barnsley",NA,"ChIJ6eBAp5B8eUgRcOJs7Z75DAQ","E08000016"
"103978","GB","United Kingdom","South Yorkshire","Doncaster District",NA,"ChIJ1Ta-r20OeUgRgOI-cTfRDwQ","E08000017"
"104299","GB","United Kingdom","South Yorkshire","Rotherham District",NA,"ChIJRzoY57x1eUgRkOJs7Z75DAQ","E08000018"
"104620","GB","United Kingdom","South Yorkshire","Sheffield District",NA,"ChIJNd7_bBN_eUgRoOJs7Z75DAQ","E08000019"
"104941","GB","United Kingdom","Southampton","",NA,"ChIJtxiG86x2dEgR0J7toi2uDgM","E06000045"
"105262","GB","United Kingdom","Southend-on-Sea","",NA,"ChIJ546Ao2nY2EcRYJ_Du6gcDgM","E06000033"
"105580","GB","United Kingdom","Staffordshire","",NA,"ChIJ_dclMtSAcEgRzqVXT1iTEEs",NA
"105901","GB","United Kingdom","Staffordshire","Cannock Chase District",NA,"ChIJSVRZZbgKekgRQDZt7Z75DAQ","E07000192"
"106222","GB","United Kingdom","Staffordshire","East Staffordshire District",NA,"ChIJSRdpaHEQekgRUDZt7Z75DAQ","E07000193"
"106543","GB","United Kingdom","Staffordshire","Lichfield District",NA,"ChIJNZQoYPEHekgRYDZt7Z75DAQ","E07000194"
"106861","GB","United Kingdom","Staffordshire","Newcastle-under-Lyme District",NA,"ChIJoTJcDTNnekgRcDZpWLxiEAQ","E07000195"
"107182","GB","United Kingdom","Staffordshire","South Staffordshire District",NA,"ChIJzbBMxISccEgRgDZt7Z75DAQ","E07000196"
"107500","GB","United Kingdom","Staffordshire","Stafford District",NA,"ChIJH00L9CVwekgRkDZt7Z75DAQ","E07000197"
"107821","GB","United Kingdom","Staffordshire","Staffordshire Moorlands District",NA,"ChIJUTVrvaA_ekgRoDZt7Z75DAQ","E07000198"
"108142","GB","United Kingdom","Staffordshire","Tamworth District",NA,"ChIJ03tcDuGrcEgRMDZt7Z75DAQ","E07000199"
"108460","GB","United Kingdom","Stirling","",NA,"ChIJvcYk6pRiiEgRU8UgjtzDpV4","S12000030"
"108775","GB","United Kingdom","Stockton-on-Tees","",NA,"ChIJMU7U5h6TfkgRsKBv7Z75DAM","E06000004"
"109096","GB","United Kingdom","Stoke-on-Trent","",NA,"ChIJLSYOtdtpekgRMKBv7Z75DAM","E06000021"
"109417","GB","United Kingdom","Suffolk","",NA,"ChIJ4RrP7mIV2EcR-mrZ7pFDz7g",NA
"109738","GB","United Kingdom","Suffolk","Babergh District",NA,"ChIJwwRu_Iao2UcRoOPBu6gcDgQ","E07000200"
"110056","GB","United Kingdom","Suffolk","Ipswich",NA,"ChIJMSIxzIGf2UcRkOPBu6gcDgQ","E07000202"
"110377","GB","United Kingdom","Suffolk","Mid Suffolk District",NA,"ChIJ4fxAxFu82UcRwOPBu6gcDgQ","E07000203"
"110695","GB","United Kingdom","Suffolk","Suffolk Coastal District",NA,"ChIJ3cTJD6iF2UcR4OPBu6gcDgQ","E07000244"
"111016","GB","United Kingdom","Suffolk","Waveney District",NA,"ChIJM0bKAeT12UcR8OPBu6gcDgQ","E07000244"
"111337","GB","United Kingdom","Suffolk","West Suffolk District",NA,"ChIJsytpv9JF2EcRndAbE9CeKNw","E07000245"
"111658","GB","United Kingdom","Surrey","",NA,"ChIJgSUS1VpV30cRd0IDXESDUtU",NA
"111979","GB","United Kingdom","Surrey","Borough of Guildford",NA,"ChIJEaciRq_QdUgRcGrsoi2uDgQ","E07000209"
"112300","GB","United Kingdom","Surrey","Borough of Waverley",NA,"ChIJW6fCEhXOdUgRgE3toi2uDgQ","E07000216"
"112618","GB","United Kingdom","Surrey","Borough of Woking",NA,"ChIJF1yRbSzYdUgRoEvtoi2uDgQ","E07000217"
"112936","GB","United Kingdom","Surrey","Elmbridge",NA,"ChIJmzDSaFx1dkgRIGnsoi2uDgQ","E07000207"
"113254","GB","United Kingdom","Surrey","Epsom and Ewell District",NA,"ChIJCcdQ8g3idUgRMGnsoi2uDgQ","E07000208"
"113569","GB","United Kingdom","Surrey","Mole Valley District",NA,"ChIJ8WjeRF_mdUgRgGrsoi2uDgQ","E07000210"
"113884","GB","United Kingdom","Surrey","Reigate and Banstead District",NA,"ChIJTT5BobrkdUgRQGnsoi2uDgQ","E07000211"
"114205","GB","United Kingdom","Surrey","Runnymede District",NA,"ChIJ6xYC6Ax3dkgRUGnsoi2uDgQ","E07000212"
"114522","GB","United Kingdom","Surrey","Spelthorne District",NA,"ChIJwxkkfgZ0dkgRYGnsoi2uDgQ","E07000213"
"114842","GB","United Kingdom","Surrey","Surrey Heath District",NA,"ChIJi7ZcvvzVdUgRkGrsoi2uDgQ","E07000214"
"115160","GB","United Kingdom","Surrey","Tandridge District",NA,"ChIJox1Ibh75dUgRoGrsoi2uDgQ","E07000215"
"115475","GB","United Kingdom","Swansea","",NA,"ChIJBZwG_lfybkgRQKKZ1COLDQM","W06000011"
"115796","GB","United Kingdom","Swindon","",NA,"ChIJaX2llQdGcUgRIKCZ1COLDQM","E06000030"
"116117","GB","United Kingdom","Thurrock","",NA,"ChIJE2okxgPI2EcRUJ_toi2uDgM","E06000034"
"116438","GB","United Kingdom","Torbay","",NA,"ChIJ1yHi6BYQbUgRgJ7toi2uDgM","E06000027"
"116756","GB","United Kingdom","Torfaen Principal Area","",NA,"ChIJY07_vRrecUgRVBP_CJzWakI","W06000020"
"117071","GB","United Kingdom","Tyne and Wear","",NA,"ChIJzWRvDH6FfUgRhdQ-O-5jKG0",NA
"117392","GB","United Kingdom","Tyne and Wear","Metropolitan Borough of Gateshead",NA,"ChIJHXRd7jZ4fkgR8Lds7Z75DAQ","E08000037"
"117713","GB","United Kingdom","Tyne and Wear","Newcastle upon Tyne District",NA,"ChIJs6q4o5V2fkgRALhs7Z75DAQ","E08000021"
"118034","GB","United Kingdom","Tyne and Wear","North Tyneside District",NA,"ChIJPwryW_txfkgR0Lds7Z75DAQ","E08000022"
"118355","GB","United Kingdom","Tyne and Wear","South Tyneside",NA,"ChIJl4UTFHJvfkgR4Lds7Z75DAQ","E08000023"
"118676","GB","United Kingdom","Tyne and Wear","Sunderland District",NA,"ChIJt8wLnoZkfkgRELhs7Z75DAQ","E08000024"
"118997","GB","United Kingdom","Vale of Glamorgan","",NA,"ChIJ2wmwV-gNbkgREKKZ1COLDQM","W06000014"
"119312","GB","United Kingdom","Warrington","",NA,"ChIJMWQmW4MBe0gRYKBv7Z75DAM","E06000007"
"119633","GB","United Kingdom","Warwickshire","",NA,"ChIJc3FBGy2UcEgRInoraUpRIAo",NA
"119954","GB","United Kingdom","Warwickshire","North Warwickshire District",NA,"ChIJVQTK-QKtcEgRkOTCu6gcDgQ","E07000218"
"120269","GB","United Kingdom","Warwickshire","Nuneaton and Bedworth",NA,"ChIJJUrkU3VOd0gRMOTCu6gcDgQ","E07000219"
"120590","GB","United Kingdom","Warwickshire","Rugby District",NA,"ChIJDaHf1QNHd0gR8OXCu6gcDgQ","E07000220"
"120911","GB","United Kingdom","Warwickshire","Stratford-on-Avon District",NA,"ChIJ8RKIiZLScEgRoIqX1COLDQQ","E07000221"
"121232","GB","United Kingdom","Warwickshire","Warwick",NA,"ChIJYXIfDSLLcEgRsIqX1COLDQQ","E07000222"
"121553","GB","United Kingdom","West Berkshire","",NA,"ChIJ6fK_v7WldkgR4J7toi2uDgM","E06000037"
"121868","GB","United Kingdom","West Dunbartonshire Council","",NA,"ChIJKxHgqUxSiEgRILNCBhpoDAM","S12000039"
"122183","GB","United Kingdom","West Lothian","",NA,"ChIJ__YFwxTFh0gR8-_8imq7VJ8","S12000040"
"122504","GB","United Kingdom","West Midlands","",NA,"ChIJ_dclMtSAcEgR5_O7OttvyI0",NA
"122825","GB","United Kingdom","West Midlands","Birmingham District",NA,"ChIJdxO4HGC7cEgR0IiX1COLDQQ","E08000025"
"123146","GB","United Kingdom","West Midlands","City of Wolverhampton District",NA,"ChIJpXKzEo-bcEgREImX1COLDQQ","E08000031"
"123467","GB","United Kingdom","West Midlands","Coventry",NA,"ChIJc1uq9aFLd0gRIImX1COLDQQ","E08000026"
"123788","GB","United Kingdom","West Midlands","Dudley District",NA,"ChIJV3gbqbiQcEgR4IiX1COLDQQ","E08000027"
"124109","GB","United Kingdom","West Midlands","Metropolitan Borough of Solihull",NA,"ChIJJ_OPgSu3cEgRMImX1COLDQQ","E08000029"
"124430","GB","United Kingdom","West Midlands","Sandwell District",NA,"ChIJbw4g4B-YcEgR8IiX1COLDQQ","E08000028"
"124751","GB","United Kingdom","West Midlands","Walsall District",NA,"ChIJt0ZYIvehcEgRAImX1COLDQQ","E08000030"
"125072","GB","United Kingdom","West Sussex","",NA,"ChIJf5cWR0NY30cRwn257Oarqa4",NA
"125393","GB","United Kingdom","West Sussex","Adur District",NA,"ChIJyU9ZVl-XdUgRkE3toi2uDgQ","E07000223"
"125708","GB","United Kingdom","West Sussex","Arun District",NA,"ChIJ2WCM2PGvdUgRoE3toi2uDgQ","E07000224"
"126029","GB","United Kingdom","West Sussex","Chichester District",NA,"ChIJrauF82qzdUgRsE3toi2uDgQ","E07000225"
"126350","GB","United Kingdom","West Sussex","Crawley",NA,"ChIJNRVmdiXudUgRsEvtoi2uDgQ","E07000226"
"126671","GB","United Kingdom","West Sussex","Horsham District",NA,"ChIJDVDst_G_dUgRwE3toi2uDgQ","E07000227"
"126992","GB","United Kingdom","West Sussex","Mid Sussex District",NA,"ChIJYfpuR66MdUgR0E3toi2uDgQ","E07000228"
"127313","GB","United Kingdom","West Sussex","Worthing",NA,"ChIJyesw-7iidUgRUE3toi2uDgQ","E07000229"
"127634","GB","United Kingdom","West Yorkshire","",NA,"ChIJ8RhrwDkTeUgRlMFjPKK1F2U",NA
"127955","GB","United Kingdom","West Yorkshire","Bradford District",NA,"ChIJ1zMpIZrle0gRIOJoWLxiEAQ","E08000032"
"128276","GB","United Kingdom","West Yorkshire","Calderdale",NA,"ChIJ3V8S0AnCe0gRMOJoWLxiEAQ","E08000033"
"128597","GB","United Kingdom","West Yorkshire","Leeds District",NA,"ChIJYXT0cPtbeUgRUOJs7Z75DAQ","E08000035"
"128918","GB","United Kingdom","West Yorkshire","Metropolitan Borough of Kirklees",NA,"ChIJreGSsnDce0gRQOJoWLxiEAQ","E08000034"
"129239","GB","United Kingdom","West Yorkshire","Wakefield District",NA,"ChIJ93P9tsBoeUgRYOJs7Z75DAQ","E08000036"
"129560","GB","United Kingdom","Wiltshire","",NA,"ChIJKcgiicI3cUgRNJe9kfg0iGQ","E06000054"
"129881","GB","United Kingdom","Windsor and Maidenhead","",NA,"ChIJP3x1afJ8dkgRIJ_toi2uDgM","E06000040"
"130196","GB","United Kingdom","Wokingham","",NA,"ChIJydxwpfeEdkgREJ_toi2uDgM","E06000041"
"130511","GB","United Kingdom","Worcestershire","",NA,"ChIJnRlsd1hCcEgRB-wrJjlv8W4",NA
"130832","GB","United Kingdom","Worcestershire","Bromsgrove District",NA,"ChIJXRGEQjyVcEgRYIqX1COLDQQ","E07000234"
"131150","GB","United Kingdom","Worcestershire","Malvern Hills District",NA,"ChIJg9w6bSpYcEgR8IqX1COLDQQ","E07000235"
"131465","GB","United Kingdom","Worcestershire","Redditch District",NA,"ChIJubi5O-rBcEgRcIqX1COLDQQ","E07000236"
"131784","GB","United Kingdom","Worcestershire","Worcester District",NA,"ChIJG0PYOV_wcEgRgIqX1COLDQQ","E07000237"
"132105","GB","United Kingdom","Worcestershire","Wychavon District",NA,"ChIJ0UgEHITocEgRkIqX1COLDQQ","E07000238"
"132426","GB","United Kingdom","Worcestershire","Wyre Forest District",NA,"ChIJVQnkg4CLcEgRcDVt7Z75DAQ","E07000239"
"132747","GB","United Kingdom","Wrexham Principal Area","",NA,"ChIJxcQKOQS4ekgRUKGZ1COLDQM","W06000006"
"133062","GB","United Kingdom","York","",NA,"ChIJh-IigLwxeUgRAKFv7Z75DAM","E06000014"
